OBJECT_NAME,OBJECT_ID,EPOCH,MEAN_MOTION,ECCENTRICITY,INCLINATION,RA_OF_ASC_NODE,ARG_OF_PERICENTER,MEAN_ANOMALY,EPHEMERIS_TYPE,CLASSIFICATION_TYPE,NORAD_CAT_ID,ELEMENT_SET_NO,REV_AT_EPOCH,BSTAR,MEAN_MOTION_DOT,MEAN_MOTION_DDOT
MONITOR-3 (RS58S),2023-091Q,2026-06-11T05:42:55.601856,15.27719928,.00130848,97.5091,225.6408,119.1616,241.0934,0,U,57180,999,16338,.338429E-3,.9115E-4,0
MONITOR-4 (RS57S),2023-091S,2026-06-11T05:13:15.116448,15.27810441,.00130826,97.5084,225.5908,119.5083,240.7462,0,U,57182,999,16338,.30919406E-3,.8343E-4,0
MONITOR-2 (RS39S),2023-091U,2026-06-11T04:27:39.367584,15.18853070,.00125259,97.5079,220.5076,129.4835,230.7509,0,U,57184,999,16304,.21114544E-3,.4339E-4,0
SVYATOBOR 1 (RS60S),2023-091X,2026-06-11T05:24:46.000224,15.26511693,.00109151,97.5096,226.0095,112.2745,247.9652,0,U,57187,999,16340,.288768E-3,.7478E-4,0
HORS 1,2023-091Y,2026-06-11T06:38:55.193280,15.26615912,.00103823,97.5074,225.8246,111.8314,248.4030,0,U,57188,999,16341,.29866467E-3,.7761E-4,0
VIZARD-METEO (RS38S),2023-091Z,2026-06-11T05:15:27.044928,15.35833105,.00085846,97.5098,231.5852,95.4893,264.7330,0,U,57189,999,16377,.40518097E-3,.1407E-3,0
SITRO-AIS 6 (CHIRKIN),2023-091AC,2026-06-11T05:05:35.902176,15.25818808,.00130577,97.5075,225.2057,124.8775,235.3693,0,U,57192,999,16337,.32427735E-3,.824E-4,0
SITRO-AIS 8 (ANOKHIN),2023-091AD,2026-06-11T06:34:59.211552,15.31971673,.00118628,97.5064,227.6825,118.1556,242.0886,0,U,57193,999,16354,.40940745E-3,.12592E-3,0
SITRO-AIS 7 (FARTUSHNIY),2023-091AE,2026-06-11T05:08:22.831296,15.25508577,.00128686,97.5073,225.0356,125.8357,234.4078,0,U,57194,999,16336,.32176529E-3,.8098E-4,0
AVION KALUGA 650,2023-091AF,2026-06-11T05:43:36.297120,15.20287857,.00117264,97.5096,221.8391,127.3021,232.9285,0,U,57195,999,16312,.23433241E-3,.5028E-4,0
HORS 2,2023-091AG,2026-06-11T06:50:30.282144,15.31739619,.00095099,97.5096,229.2345,105.3799,254.8494,0,U,57196,999,16362,.38760168E-3,.11821E-3,0
A-SEANSAT-PG1,2023-091AH,2026-06-11T06:45:23.816160,15.36753877,.00085279,97.5087,231.7374,102.5197,257.7001,0,U,57197,999,16380,.44739851E-3,.16015E-3,0
SITRO-AIS 10 (BURDAEV),2023-091AK,2026-06-11T06:22:24.425472,15.38382847,.00078423,97.5087,232.6668,97.7802,262.4334,0,U,57199,999,16385,.45168607E-3,.17044E-3,0
SITRO-AIS 9 (SHCHUKIN),2023-091AM,2026-06-11T05:24:02.057184,15.37899887,.00080967,97.5086,232.3600,98.0046,262.2117,0,U,57201,999,16383,.43365823E-3,.16105E-3,0
UTMN 2 (RS27S),2023-091AP,2026-06-11T05:56:32.464608,15.31903962,.00094789,97.5094,229.3867,101.4316,258.7990,0,U,57203,999,16363,.35482033E-3,.10869E-3,0
SITRO-AIS 12 (SMIRENNIY),2023-091AQ,2026-06-11T06:45:49.662720,15.38191522,.00076608,97.5099,232.8815,92.9288,267.2833,0,U,57204,999,16386,.44563083E-3,.16709E-3,0
SITRO-AIS 11 (SHEFFER),2023-091AU,2026-06-11T05:33:50.042880,15.38611279,.00075575,97.5097,233.0732,92.9153,267.2957,0,U,57208,999,16387,.43974741E-3,.16714E-3,0
H2SAT (HEINRICH HERTZ),2023-093A,2026-06-11T03:12:38.628288,1.00272336,.0001566,0.0577,109.1609,32.3816,166.7977,0,U,57213,999,1085,0,.19E-6,0
KUZGTU 1 (RS47S),2023-091AV,2026-06-11T05:06:08.452512,15.29722519,.00123567,97.5071,226.6321,116.4219,243.8290,0,U,57217,999,16346,.33913301E-3,.9711E-4,0
QIANKUN-1,2023-103B,2026-06-10T15:16:35.632128,16.07641077,.00279364,96.1537,206.9401,148.1317,212.1666,0,U,57422,999,16624,.19494773E-4,.15936E-3,.1768719E-5
FENGYUN 3F,2023-111A,2026-06-11T06:23:48.030432,14.19938061,.00015908,98.6841,232.3853,97.8330,262.3028,0,U,57490,999,14802,.30184552E-4,.21E-6,0
HJ-2F,2023-116A,2026-06-11T06:29:54.057984,15.22235375,.00103442,97.3843,167.5925,69.3740,290.8605,0,U,57519,999,15785,.2676161E-3,.6092E-4,0
XRISM,2023-137A,2026-06-11T01:16:21.757440,15.12412932,.00079432,31.0028,39.3338,262.6424,97.3312,0,U,57800,999,15193,.24618033E-3,.4483E-4,0
METEOR-M2 4,2024-039A,2026-06-11T06:35:34.131840,14.22428978,.00069358,98.7008,121.6471,177.7293,182.3917,0,U,59051,999,11842,.20757305E-4,.2E-7,0
GRBBETA,2024-128C,2026-06-10T21:57:34.354080,15.06598569,.0041491,61.9897,238.2715,133.2900,227.1666,0,U,60237,999,10532,.22492969E-3,.3192E-4,0
TRANSPORTER-11 OBJECT A,2024-149A,2026-06-11T05:06:46.961856,15.32808970,.00022768,97.3732,242.1617,218.4522,141.6558,0,U,60468,999,10114,.22825814E-3,.7155E-4,0
WARATAH SEED-1,2024-149B,2026-06-11T04:22:29.417952,15.35794211,.00009841,97.3693,242.7518,196.0045,164.1167,0,U,60469,999,10119,.32745714E-3,.11326E-3,0
PHISAT 2,2024-149C,2026-06-11T05:31:46.953120,15.30962253,.00004841,97.3758,241.4799,181.0524,179.0716,0,U,60470,999,10108,.20338446E-3,.6007E-4,0
LEMUR-2-TOMATOKECHUP,2024-149D,2026-06-11T04:17:37.353984,15.35903465,.00008465,97.3799,244.2108,190.0298,170.0929,0,U,60471,999,10124,.27392444E-3,.9493E-4,0
